      2.10          N: GNSS NAV DATA                        RINEX VERSION / TYPE
fic2rin                                 08/15/2024 00:59:02 PGM / RUN BY / DATE
                                                            END OF HEADER
3  24  8 14  1 59 44.0  .499031506479D-03  .150066625793D-10  .000000000000D+00
     .170000000000D+02 -.967500000000D+02  .366158109098D-08  .188558300875D+01
    -.498443841934D-05  .572447013110D-02  .712648034096D-05  .515368354416D+04
     .266384000000D+06 -.465661287308D-07  .169491762732D+01 -.108033418655D-06
     .985326269583D+00  .254500000000D+03  .114523781557D+01 -.770674958848D-08
     .192508018732D-09  .100000000000D+01  .232700000000D+04  .000000000000D+00
     .240000000000D+01  .000000000000D+00  .139698386192D-08  .170000000000D+02
     .259200000000D+06  .400000000000D+01
7  24  8 14  1 59 44.0 -.522355549037D-04  .602540239925D-11  .000000000000D+00
     .330000000000D+02 -.287500000000D+01  .499270796633D-08  .242702084245D+01
    -.359490513802D-06  .186920732958D-01  .728294253349D-05  .515361210251D+04
     .266384000000D+06  .707805156708D-07 -.249828678404D+01 -.337138772011D-06
     .950416561830D+00  .233750000000D+03 -.210525699508D+01 -.778175271266D-08
    -.178578867098D-10  .100000000000D+01  .232700000000D+04  .000000000000D+00
     .240000000000D+01  .000000000000D+00 -.111758708954D-07  .330000000000D+02
     .259200000000D+06  .400000000000D+01
11 24  8 15  0  0  0.0 -.721503049135D-03 -.557065504836D-11  .000000000000D+00
     .500000000000D+02  .937500000000D+01  .419446043040D-08 -.276464699499D+01
     .560656189919D-06  .157144025434D-02  .257045030594D-05  .515375720978D+04
     .345600000000D+06  .372529029846D-08  .689273483944D+00  .558793544769D-08
     .966299897904D+00  .332062500000D+03 -.258401926211D+01 -.811212361680D-08
     .124648049234D-09  .100000000000D+01  .232700000000D+04  .000000000000D+00
     .240000000000D+01  .000000000000D+00 -.884756445885D-08  .306000000000D+03
     .338400000000D+06  .400000000000D+01
27 24  8 15  0  0  0.0 -.330149196088D-04 -.454747350886D-12  .000000000000D+00
     .750000000000D+02  .111125000000D+03  .415410160643D-08 -.197537748661D+01
     .573694705963D-05  .125509916106D-01  .715814530849D-05  .515368776703D+04
     .345600000000D+06  .856816768646D-07 -.412839772708D+00 -.176951289177D-06
     .961168524024D+00  .243093750000D+03  .797246082374D+00 -.773139347214D-08
    -.500020827875D-10  .100000000000D+01  .232700000000D+04  .000000000000D+00
     .240000000000D+01  .000000000000D+00  .186264514923D-08  .750000000000D+02
     .338400000000D+06  .400000000000D+01
31 24  8 15  0  0  0.0 -.225850380957D-03  .341060513165D-12  .000000000000D+00
     .950000000000D+02  .821875000000D+01  .510485549486D-08  .446924359553D+00
     .646337866783D-06  .105641976697D-01  .666826963425D-05  .515375855255D+04
     .345600000000D+06 -.204890966415D-07 -.247707853588D+01  .119209289551D-06
     .954356829273D+00  .246625000000D+03  .708845829817D+00 -.823462871962D-08
    -.482162941165D-10  .100000000000D+01  .232700000000D+04  .000000000000D+00
     .240000000000D+01  .000000000000D+00 -.135041773319D-07  .950000000000D+02
     .338400000000D+06  .400000000000D+01
32 24  8 15  0  0  0.0 -.605721026659D-03  .284217094304D-11  .000000000000D+00
     .530000000000D+02 -.513750000000D+02  .450090176634D-08 -.131985506028D+01
    -.248476862907D-05  .781987293158D-02  .922754406929D-05  .515371229172D+04
     .345600000000D+06  .134110450745D-06  .272710851268D+01  .175088644028D-06
     .962840098109D+00  .200625000000D+03 -.213331646165D+01 -.778103839720D-08
     .472162524607D-09  .100000000000D+01  .232700000000D+04  .000000000000D+00
     .240000000000D+01  .000000000000D+00  .931322574615D-09  .530000000000D+02
     .338400000000D+06  .400000000000D+01
30 24  8 15  0  0  0.0 -.339860562235D-03  .682121026330D-11  .000000000000D+00
     .700000000000D+02  .306250000000D+01  .560809074235D-08  .126698861096D+01
     .309199094772D-06  .717424310278D-02  .668317079544D-05  .515359097481D+04
     .345600000000D+06 -.204890966415D-07 -.249951461850D+01  .163912773132D-06
     .935565520733D+00  .240343750000D+03 -.244696643871D+01 -.850856870175D-08
     .417874549009D-10  .100000000000D+01  .232700000000D+04  .000000000000D+00
     .240000000000D+01  .000000000000D+00  .419095158577D-08  .700000000000D+02
     .338400000000D+06  .400000000000D+01
21 24  8 15  0  0  0.0  .103521626443D-03 -.568434188608D-12  .000000000000D+00
     .610000000000D+02  .426562500000D+02  .429910764652D-08 -.221216884477D+01
     .248476862907D-05  .252902081702D-01  .239536166191D-05  .515366648293D+04
     .345600000000D+06 -.517815351486D-06  .550283230351D+00  .258907675743D-06
     .961535767664D+00  .340781250000D+03 -.533712651937D+00 -.815248244076D-08
     .157506560780D-09  .100000000000D+01  .232700000000D+04  .000000000000D+00
     .240000000000D+01  .000000000000D+00 -.102445483208D-07  .610000000000D+02
     .338400000000D+06  .400000000000D+01
26 24  8 15  0  0  0.0  .100368168205D-03 -.761701812735D-11  .000000000000D+00
     .640000000000D+02  .270937500000D+02  .538522431621D-08 -.160989558616D+00
     .134482979774D-05  .905234937090D-02  .759959220886D-05  .515367917252D+04
     .345600000000D+06  .242143869400D-07 -.153428813381D+01  .726431608200D-07
     .930282734833D+00  .213281250000D+03  .544735321270D+00 -.842999400023D-08
    -.598239204778D-09  .100000000000D+01  .232700000000D+04  .000000000000D+00
     .240000000000D+01  .000000000000D+00  .651925802231D-08  .640000000000D+02
     .338400000000D+06  .400000000000D+01
20 24  8 15  0  0  0.0  .371677801013D-03 -.454747350886D-12  .000000000000D+00
     .390000000000D+02 -.875937500000D+02  .446268588878D-08  .269972107996D+01
    -.445730984211D-05  .372070795856D-02  .465847551823D-05  .515358349419D+04
     .345600000000D+06 -.260770320892D-07  .151163778343D+01 -.745058059692D-07
     .954633475859D+00  .284875000000D+03 -.257306715663D+01 -.812819571483D-08
     .910752222200D-10  .100000000000D+01  .232700000000D+04  .000000000000D+00
     .240000000000D+01  .000000000000D+00 -.838190317154D-08  .390000000000D+02
     .338400000000D+06  .400000000000D+01
15 24  8 15  0  0  0.0  .192672945559D-03  .432009983342D-11  .000000000000D+00
     .470000000000D+02 -.607812500000D+02  .493627704432D-08 -.300766954446D+01
    -.345520675182D-05  .159880418796D-01  .912323594093D-05  .515369523621D+04
     .345600000000D+06  .221654772758D-06  .258228046548D+01 -.102445483208D-06
     .936386723946D+00  .186312500000D+03  .134032663410D+01 -.785818446778D-08
     .448232956416D-09  .100000000000D+01  .232700000000D+04  .000000000000D+00
     .240000000000D+01  .000000000000D+00 -.102445483208D-07  .470000000000D+02
     .338400000000D+06  .400000000000D+01
17 24  8 15  0  0  0.0  .654488336295D-03 -.943600753089D-11  .000000000000D+00
     .250000000000D+02  .960937500000D+02  .406159775328D-08 -.208925204955D+01
     .507943332195D-05  .134713688167D-01  .682659447193D-05  .515378394127D+04
     .345600000000D+06  .158324837685D-06 -.344051459901D+00  .262632966042D-06
     .967960268962D+00  .253625000000D+03 -.131057140994D+01 -.772710757933D-08
    -.172864343351D-09  .100000000000D+01  .232700000000D+04  .000000000000D+00
     .240000000000D+01  .000000000000D+00 -.111758708954D-07  .250000000000D+02
     .338400000000D+06  .400000000000D+01
25 24  8 15  0  0  0.0  .499287154526D-03  .227373675443D-12  .000000000000D+00
     .500000000000D+02  .351250000000D+02  .494163441034D-08  .589181676410D+00
     .195391476154D-05  .116579467431D-01  .801496207714D-05  .515374759674D+04
     .345600000000D+06 -.838190317154D-07 -.147028914415D+01  .745058059692D-07
     .949517091038D+00  .220093750000D+03  .109038670575D+01 -.826355849609D-08
    -.567166481903D-09  .100000000000D+01  .232700000000D+04  .000000000000D+00
     .240000000000D+01  .000000000000D+00  .512227416039D-08  .500000000000D+02
     .338400000000D+06  .400000000000D+01
19 24  8 15  0  0  0.0  .524648465216D-03  .511590769747D-11  .000000000000D+00
     .490000000000D+02  .801250000000D+02  .417088801994D-08 -.139619366884D+00
     .409223139286D-05  .998977874406D-02  .671111047268D-05  .515372993660D+04
     .345600000000D+06  .139698386192D-06 -.299802287100D+00 -.189989805222D-06
     .967181987766D+00  .259125000000D+03  .262217216269D+01 -.803390607301D-08
    -.167149819604D-09  .100000000000D+01  .232700000000D+04  .000000000000D+00
     .240000000000D+01  .000000000000D+00 -.153668224812D-07  .490000000000D+02
     .338400000000D+06  .400000000000D+01
16 24  8 15  0  0  0.0 -.208435580134D-03  .103455022327D-10  .000000000000D+00
     .105000000000D+03  .425937500000D+02  .451518807571D-08 -.108118732681D+01
     .223517417908D-05  .138588219415D-01  .866502523422D-05  .515360270882D+04
     .345600000000D+06  .245869159698D-06 -.136500600650D+01  .203028321266D-06
     .960979096614D+00  .212187500000D+03  .840130696393D+00 -.789675750308D-08
    -.594310469702D-09  .100000000000D+01  .232700000000D+04  .000000000000D+00
     .240000000000D+01  .000000000000D+00 -.102445483208D-07  .105000000000D+03
     .338400000000D+06  .400000000000D+01
18 24  8 15  0  0  0.0 -.646168831736D-03 -.318323145621D-11  .000000000000D+00
     .100000000000D+01  .746875000000D+01  .415124434456D-08  .230018551436D+01
     .424683094025D-06  .450856366660D-02  .214949250221D-05  .515360561180D+04
     .345600000000D+06 -.109896063805D-06  .660924852596D+00  .260770320892D-07
     .974587295176D+00  .345375000000D+03 -.302822947414D+01 -.815819696451D-08
     .310727228751D-10  .100000000000D+01  .232700000000D+04  .000000000000D+00
     .240000000000D+01  .000000000000D+00 -.838190317154D-08  .769000000000D+03
     .338400000000D+06  .400000000000D+01
